GLOBALSTAR M069         
1 31573U 07020C   26165.58673725 -.00000057  00000+0  32898-3 0  9996
2 31573  52.0031 259.4877 0002394 142.4655 322.4372 12.23471048878489
GLOBALSTAR M072         
1 31574U 07020D   26165.10441311 -.00000104  00000+0 -27730-3 0  9992
2 31574  51.9921 108.4521 0001405 323.9216  49.6867 11.91658465874618
GLOBALSTAR M066         
1 32265U 07048C   26165.50163867 -.00000147  00000+0 -44113-3 0  9992
2 32265  51.9601  65.6214 0005447  38.3366 134.5586 12.30387863859897
GLOBALSTAR M079         
1 37188U 10054A   26165.11673721 -.00000116  00000+0 -66588-4 0  9991
2 37188  52.0029 118.0165 0000642  16.9430 356.4067 12.62266081722167
GLOBALSTAR M074         
1 37189U 10054B   26165.57378413 -.00000127  00000+0 -13012-3 0  9997
2 37189  52.0005 115.8902 0000494  48.8779 122.5864 12.62268394722820
GLOBALSTAR M076         
1 37190U 10054C   26165.60016681 -.00000131  00000+0 -14969-3 0  9996
2 37190  52.0018 116.0126 0000690  39.7278 131.8170 12.62261771722542
GLOBALSTAR M077         
1 37191U 10054D   26165.37146544 -.00000056  00000+0  41072-3 0  9993
2 37191  51.9924 186.4432 0002779 167.5100 205.7421 11.67547777720817
GLOBALSTAR M075         
1 37192U 10054E   26165.28151027 -.00000106  00000+0 -10128-4 0  9992
2 37192  51.9920 159.0398 0000094  20.8345  81.8269 12.62267395721579
GLOBALSTAR M073         
1 37193U 10054F   26165.45535103 -.00000111  00000+0 -40665-4 0  9998
2 37193  52.0067  72.6080 0000876  42.3067 129.2420 12.62262121723581
GLOBALSTAR M083         
1 37739U 11033A   26165.31002924 -.00000092  00000+0  67229-4 0  9999
2 37739  51.9873  21.2829 0000905  61.7603 110.5543 12.62263032692581
GLOBALSTAR M088         
1 37740U 11033B   26165.64502557 -.00000093  00000+0  60764-4 0  9992
2 37740  52.0222 286.6865 0000748 122.6428 250.9958 12.62268661688179
GLOBALSTAR M091         
1 37741U 11033C   26165.43516061 -.00000078  00000+0  14269-3 0  9996
2 37741  51.9992 250.2945 0000368 147.4394 293.0858 12.62263864688934
GLOBALSTAR M085         
1 37742U 11033D   26165.40718737 -.00000074  00000+0  16566-3 0  9996
2 37742  52.0103 201.6687 0000105 247.8325 125.6055 12.62264101689443
GLOBALSTAR M081         
1 37743U 11033E   26165.35445664 -.00000071  00000+0  18401-3 0  9994
2 37743  51.9936 204.2688 0000149 119.7253 253.6013 12.62264991689589
GLOBALSTAR M089         
1 37744U 11033F   26165.17106796 -.00000096  00000+0  45037-4 0  9998
2 37744  51.9904 158.9854 0000343  91.7326 348.6914 12.62267209690404
GLOBALSTAR M084         
1 38040U 11080A   26165.36259067 -.00000096  00000+0  42587-4 0  9998
2 38040  52.0027  25.8813 0001076  81.3942  89.7044 12.62267519668408
GLOBALSTAR M080         
1 38041U 11080B   26165.33409172 -.00000091  00000+0  69132-4 0  9990
2 38041  52.0077  27.6853 0000356  70.2106 101.3483 12.62269344668526
GLOBALSTAR M082         
1 38042U 11080C   26165.27005752 -.00000096  00000+0  44639-4 0  9990
2 38042  52.0095 343.3804 0000555  91.6356  78.9015 12.62263712669227
GLOBALSTAR M092         
1 38043U 11080D   26165.48143075 -.00000108  00000+0 -23697-4 0  9991
2 38043  52.0093  73.1338 0000653  58.3852 112.1123 12.62266952667707
GLOBALSTAR M090         
1 38044U 11080E   26165.21764105 -.00000100  00000+0  22895-4 0  9996
2 38044  52.0142 337.4953 0000804  87.8027  83.3926 12.62269037669339
GLOBALSTAR M086         
1 38045U 11080F   26165.23955601 -.00000092  00000+0  68256-4 0  9993
2 38045  51.9915 337.3632 0001666  62.8638 108.7512 12.62286687669284
GLOBALSTAR M097         
1 39072U 13005A   26165.54976835 -.00000098  00000+0  31431-4 0  9990
2 39072  52.0047 251.3655 0000336 127.8374 232.2523 12.62247207616579
GLOBALSTAR M093         
1 39073U 13005B   26165.52302230 -.00000075  00000+0  15984-3 0  9990
2 39073  52.0100 244.7925 0000219 100.1349 259.9543 12.62265868616528
GLOBALSTAR M094         
1 39074U 13005C   26165.28537350 -.00000107  00000+0 -16249-4 0  9990
2 39074  51.9926 159.6343 0000338 354.0729   6.0134 12.62268585618107
GLOBALSTAR M096         
1 39075U 13005D   26165.37802771 -.00000070  00000+0  19060-3 0  9994
2 39075  52.0054 208.1526 0000062 204.6562 155.4302 12.62265617617034
GLOBALSTAR M078         
1 39076U 13005E   26165.66776804 -.00000183  00000+0 -44217-3 0  9992
2 39076  51.9887 291.2826 0000521 218.2736 141.8094 12.62257842615695
GLOBALSTAR M095         
1 39077U 13005F   26165.61534058 -.00000098  00000+0  31204-4 0  9998
2 39077  52.0094 289.0434 0000280 129.0552 231.0340 12.62263373615541
GLOBALSTAR M087         
1 52888U 22064A   26165.47022417 -.00000103  00000+0  28414-5 0  9990
2 52888  52.0005  70.7239 0000712  32.7601 327.3310 12.62269033190791
